     2.100          NAVIGATION                              RINEX VERSION / TYPE
fic2rin                                 06/23/2013 00:16:49 PGM / RUN BY / DATE
                                                            END OF HEADER
12 13  6 22  9 59 44.0  .140722375363D-03  .204636307899D-11  .000000000000D+00
     .600000000000D+01 -.144531250000D+03  .390623413890D-08 -.412510927742D+00
    -.767037272453D-05  .451451272238D-02  .699982047081D-05  .515355186844D+04
     .554384000000D+06  .745058059692D-07  .237730742339D+01  .577419996262D-07
     .984429298917D+00  .256468750000D+03  .296038904009D+00 -.792497296408D-08
    -.385373195198D-09  .100000000000D+01  .174500000000D+04  .000000000000D+00
     .240000000000D+01  .000000000000D+00 -.121071934700D-07  .600000000000D+01
     .552666000000D+06  .400000000000D+01
12 13  6 22 11 59 44.0  .140737276524D-03  .204636307899D-11  .000000000000D+00
     .700000000000D+01 -.141281250000D+03  .388837625219D-08  .637809752159D+00
    -.740028917789D-05  .451616675127D-02  .624731183052D-05  .515355491638D+04
     .561584000000D+06  .204890966415D-07  .237725037251D+01  .856816768646D-07
     .984426487189D+00  .269843750000D+03  .295967529698D+00 -.792318717541D-08
    -.401088135502D-09  .100000000000D+01  .174500000000D+04  .000000000000D+00
     .240000000000D+01  .000000000000D+00 -.121071934700D-07  .700000000000D+01
     .554406000000D+06  .400000000000D+01
14 13  6 22 11 59 44.0  .220104120672D-03 -.341060513165D-12  .000000000000D+00
     .290000000000D+02  .149468750000D+03  .406588364609D-08 -.276018753207D+01
     .777468085289D-05  .702842359897D-02  .915490090847D-05  .515376354027D+04
     .561584000000D+06  .134110450745D-06  .321213433223D+00 -.484287738800D-07
     .974365913246D+00  .209562500000D+03 -.203498203712D+01 -.769032033271D-08
     .141434462742D-09  .100000000000D+01  .174500000000D+04  .000000000000D+00
     .240000000000D+01  .000000000000D+00 -.884756445885D-08  .290000000000D+02
     .554406000000D+06  .400000000000D+01
27 13  6 22 11 59 44.0 -.342354178429D-05 -.295585778076D-11  .000000000000D+00
     .410000000000D+02 -.365937500000D+02  .411588572888D-08  .305637218075D+01
    -.185519456863D-05  .182811054401D-03  .127404928207D-04  .515366613007D+04
     .561584000000D+06  .260770320892D-07 -.289486487641D+01  .124797224998D-06
     .960608202993D+00  .134718750000D+03  .775049068362D+00 -.769853496060D-08
     .667527805212D-09  .100000000000D+01  .174500000000D+04  .000000000000D+00
     .240000000000D+01  .000000000000D+00  .372529029846D-08  .410000000000D+02
     .554406000000D+06  .400000000000D+01
 1 13  6 22 12  0  0.0  .406377948821D-04  .466116034659D-11  .000000000000D+00
     .900000000000D+02  .136875000000D+02  .500770859116D-08  .158918051401D+01
     .607222318649D-06  .199718575459D-02  .510178506374D-05  .515368282509D+04
     .561600000000D+06  .111758708954D-07 -.184291925586D+01  .186264514923D-07
     .959844104788D+00  .279000000000D+03  .266745098844D+00 -.821284209784D-08
     .305369862738D-09  .100000000000D+01  .174500000000D+04  .000000000000D+00
     .240000000000D+01  .000000000000D+00  .838190317154D-08  .900000000000D+02
     .554406000000D+06  .400000000000D+01
 2 13  6 22 12  0  0.0  .438243150711D-03  .181898940355D-11  .000000000000D+00
     .100000000000D+03  .192500000000D+02  .539451041730D-08  .233063220284D+01
     .101327896118D-05  .124208601192D-01  .509433448315D-05  .515366678047D+04
     .561600000000D+06 -.288709998131D-06 -.186515295108D+01 -.163912773132D-06
     .938368530290D+00  .267406250000D+03 -.258609548373D+01 -.835284792964D-08
     .417517391275D-09  .100000000000D+01  .174500000000D+04  .000000000000D+00
     .240000000000D+01  .000000000000D+00 -.176951289177D-07  .100000000000D+03
     .554406000000D+06  .400000000000D+01
 3 13  6 22 12  0  0.0  .223359558731D-03  .488853402203D-11  .000000000000D+00
     .750000000000D+02 -.732187500000D+02  .452911722734D-08  .250490382291D+01
    -.375695526600D-05  .163714892697D-01  .130478292704D-04  .515370913315D+04
     .561600000000D+06  .160187482834D-06 -.303494689260D+01 -.521540641785D-07
     .935178646196D+00  .110125000000D+03  .129700253023D+01 -.763888961899D-08
     .493234830925D-09  .100000000000D+01  .174500000000D+04  .000000000000D+00
     .340000000000D+01  .000000000000D+00 -.465661287308D-08  .750000000000D+02
     .554406000000D+06  .400000000000D+01
 4 13  6 22 12  0  0.0  .252573750913D-03  .103455022327D-10  .000000000000D+00
     .190000000000D+02  .189062500000D+02  .551522973146D-08 -.750005678050D+00
     .132620334625D-05  .103166691260D-01  .502541661263D-05  .515355175591D+04
     .561600000000D+06  .167638063431D-07 -.184871835676D+01  .173225998878D-06
     .937395272836D+00  .269000000000D+03  .980349553940D+00 -.860928718280D-08
     .387516141603D-09  .100000000000D+01  .174500000000D+04  .000000000000D+00
     .240000000000D+01  .000000000000D+00 -.605359673500D-08  .190000000000D+02
     .554406000000D+06  .400000000000D+01
 5 13  6 22 12  0  0.0 -.397445634007D-03 -.682121026330D-12  .000000000000D+00
     .360000000000D+02 -.235937500000D+02  .492520515456D-08 -.170573059320D+01
    -.147894024849D-05  .306991336402D-02  .947527587414D-05  .515363775063D+04
     .561600000000D+06 -.502914190292D-07 -.799358465860D+00 -.763684511185D-07
     .948429426075D+00  .188531250000D+03  .249658053294D+00 -.805604985253D-08
    -.592167523297D-09  .100000000000D+01  .174500000000D+04  .000000000000D+00
     .240000000000D+01  .000000000000D+00 -.102445483208D-07  .360000000000D+02
     .554406000000D+06  .400000000000D+01
 6 13  6 22 12  0  0.0  .176283065230D-03 -.171667124960D-10  .000000000000D+00
     .190000000000D+02 -.402187500000D+02  .446125725784D-08 -.195097963962D+01
    -.212900340557D-05  .810675928369D-02  .131670385599D-04  .515368723297D+04
     .561600000000D+06 -.124797224998D-06 -.295533180543D+01  .335276126862D-07
     .941773615486D+00  .117156250000D+03 -.293009744872D+00 -.788890003292D-08
     .684671376454D-09  .100000000000D+01  .174500000000D+04  .000000000000D+00
     .240000000000D+01  .000000000000D+00 -.512227416039D-08  .190000000000D+02
     .554406000000D+06  .400000000000D+01
 7 13  6 22 12  0  0.0  .227920245379D-03  .420641299570D-11  .000000000000D+00
     .250000000000D+02  .575000000000D+02  .466840874368D-08  .957793955300D+00
     .307522714138D-05  .651207123883D-02 -.759959220886D-06  .515368556976D+04
     .561600000000D+06  .558793544769D-08  .131759585248D+01  .186264514923D-07
     .975127904848D+00  .397500000000D+03 -.293296234117D+01 -.865250326863D-08
    -.225009372544D-10  .100000000000D+01  .174500000000D+04  .000000000000D+00
     .240000000000D+01  .000000000000D+00 -.107102096081D-07  .250000000000D+02
     .554406000000D+06  .400000000000D+01
 8 13  6 22 12  0  0.0  .692764297128D-05  .341060513165D-12  .000000000000D+00
     .260000000000D+02  .319062500000D+02  .416303054979D-08  .391950038384D+00
     .158883631229D-05  .130394013831D-01 -.668689608574D-06  .515371542931D+04
     .561600000000D+06  .521540641785D-07  .140948370613D+01  .126659870148D-06
     .997848933190D+00  .405843750000D+03 -.287090553765D+01 -.847106713966D-08
    -.928610108910D-10  .100000000000D+01  .174500000000D+04  .000000000000D+00
     .340000000000D+01  .000000000000D+00 -.419095158577D-08  .260000000000D+02
     .554406000000D+06  .400000000000D+01
 9 13  6 22 12  0  0.0  .249513424933D-03  .261479726760D-11  .000000000000D+00
     .890000000000D+02  .597812500000D+02  .429517891144D-08  .180024398689D+01
     .249594449997D-05  .174466030439D-01 -.694766640663D-06  .515277850723D+04
     .561600000000D+06  .160187482834D-06  .129454504729D+01 -.197440385818D-06
     .983761198860D+00  .397375000000D+03  .167740242515D+01 -.820712757409D-08
    -.285726187357D-11  .100000000000D+01  .174500000000D+04  .000000000000D+00
     .485000000000D+01  .000000000000D+00 -.558793544769D-08  .890000000000D+02
     .554406000000D+06  .400000000000D+01
10 13  6 22 12  0  0.0 -.843801535666D-04 -.136424205266D-11  .000000000000D+00
     .690000000000D+02 -.175625000000D+02  .501092301077D-08 -.149946694577D+01
    -.942498445511D-06  .124562181300D-01  .937655568123D-05  .515363777351D+04
     .561600000000D+06  .249594449997D-06 -.780076364397D+00 -.111758708954D-06
     .943273666814D+00  .183375000000D+03  .802562932322D+00 -.803569186168D-08
    -.598596362513D-09  .100000000000D+01  .174500000000D+04  .000000000000D+00
     .340000000000D+01  .000000000000D+00 -.279396772385D-08  .690000000000D+02
     .554406000000D+06  .400000000000D+01
11 13  6 22 12  0  0.0 -.393944326788D-03 -.363797880709D-11  .000000000000D+00
     .150000000000D+02  .323750000000D+02  .662384733840D-08  .116191880480D+01
     .161118805408D-05  .140884431312D-01  .641867518425D-05  .515367713547D+04
     .561600000000D+06 -.229105353355D-06 -.214189421890D+01 -.130385160446D-07
     .888828287083D+00  .219343750000D+03  .117540436840D+01 -.921788396187D-08
     .542165440510D-09  .100000000000D+01  .174500000000D+04  .000000000000D+00
     .240000000000D+01  .000000000000D+00 -.116415321827D-07  .150000000000D+02
     .554406000000D+06  .400000000000D+01
13 13  6 22 12  0  0.0  .107086263597D-03 -.375166564481D-11  .000000000000D+00
     .101000000000D+03  .175906250000D+03  .393659254631D-08 -.296984661529D+01
     .911019742489D-05  .516223837622D-02  .100471079350D-04  .515374778748D+04
     .561600000000D+06  .242143869400D-07  .350628732271D+00  .949949026108D-07
     .981690501224D+00  .197218750000D+03  .214792937772D+01 -.769210612138D-08
     .229652423088D-09  .100000000000D+01  .174500000000D+04  .000000000000D+00
     .340000000000D+01  .000000000000D+00 -.111758708954D-07  .101000000000D+03
     .554406000000D+06  .400000000000D+01
